STARLINK-33947          
1 63787U 25091N   25127.91668981 -.00839039  22355-3 -22067-2 0  9996
2 63787  43.0009 348.7792 0001833 258.5116   3.3064 15.93852944  2033
STARLINK-33882          
1 63788U 25091P   25128.25002315 -.00904712  25539-3 -24317-2 0  9996
2 63788  43.0007 346.6938 0002106 262.3728 115.9875 15.93454564  2077
STARLINK-33875          
1 63789U 25091Q   25128.16667824 -.00852759  22979-3 -22667-2 0  9993
2 63789  43.0006 347.2100 0001789 267.8993 353.2787 15.93656145  2062
STARLINK-33869          
1 63790U 25091R   25127.91668981 -.00855872  23244-3 -22166-2 0  9991
2 63790  43.0008 348.7672 0001996 266.4451 359.9853 15.94143831  1981
STARLINK-33935          
1 63791U 25091S   25128.16667824 -.00869624  23856-3 -22889-2 0  9996
2 63791  43.0006 347.2020 0002093 270.6588 353.6951 15.93843027  2173
STARLINK-33916          
1 63792U 25091T   25127.91668981 -.00859039  23447-3 -22017-2 0  9992
2 63792  43.0008 348.7594 0001769 265.4645   4.0701 15.94340321  2038
STARLINK-33925          
1 63793U 25091U   25127.91668981 -.00868457  23937-3 -22161-2 0  9991
2 63793  43.0009 348.7561 0001825 264.5348   6.3224 15.94423640  2140
STARLINK-33870          
1 63794U 25091V   25127.91668981 -.00867511  23915-3 -22011-2 0  9992
2 63794  43.0011 348.7523 0001737 262.3263  10.1813 15.94530058  2033
